BEIDOU-2 IGSO-1 (C06)   
1 36828U 10036A   25280.62565082 -.00000091  00000+0  00000+0 0  9997
2 36828  54.2757 165.2484 0051211 217.1628 324.3474  1.00295180 55560
BEIDOU-2 G4 (C04)       
1 37210U 10057A   25283.45098875 -.00000114  00000+0  00000+0 0  9997
2 37210   3.0230  70.1172 0009606 175.4380  96.1107  1.00269985 54788
BEIDOU-2 IGSO-2 (C07)   
1 37256U 10068A   25282.91830515 -.00000192  00000+0  00000+0 0  9990
2 37256  48.0004 274.9318 0048009 216.9829 322.6532  1.00251500 54289
BEIDOU-2 IGSO-3 (C08)   
1 37384U 11013A   25280.78112777 -.00000187  00000+0  00000+0 0  9993
2 37384  62.0569  42.5462 0036301 181.0903 181.2654  1.00286298 53138
BEIDOU-2 IGSO-4 (C09)   
1 37763U 11038A   25282.65266661 -.00000029  00000+0  00000+0 0  9996
2 37763  54.5781 167.9271 0145082 230.4570 307.0721  1.00255184 52139
BEIDOU-2 IGSO-5 (C10)   
1 37948U 11073A   25283.43833537 -.00000145  00000+0  00000+0 0  9998
2 37948  48.1376 274.6335 0109857 221.7391 135.5399  1.00260186 50629
BEIDOU-2 G5 (C05)       
1 38091U 12008A   25283.50220900  .00000055  00000+0  00000+0 0  9998
2 38091   2.9472  70.9055 0008587 220.8065 327.1891  1.00274103 49860
BEIDOU-2 M3 (C11)       
1 38250U 12018A   25282.96620432 -.00000045  00000+0  00000+0 0  9999
2 38250  55.9722 313.3017 0024569 268.4982  91.2701  1.86229674 91288
BEIDOU-2 M4 (C12)       
1 38251U 12018B   25281.82472495 -.00000040  00000+0  00000+0 0  9993
2 38251  55.8751 312.5743 0015678 268.7322  91.1421  1.86231972 91269
BEIDOU-2 M6 (C14)       
1 38775U 12050B   25282.60945723 -.00000005  00000+0  00000+0 0  9997
2 38775  56.3234  71.1939 0010620 355.7982   4.1865  1.86230797 88646
BEIDOU-2 G6 (C02)       
1 38953U 12059A   25283.07915888 -.00000176  00000+0  00000+0 0  9994
2 38953   3.7824  76.1246 0006111 304.2246 111.1443  1.00273238 47406
BEIDOU-3S IGSO-1S (C31) 
1 40549U 15019A   25282.48481300 -.00000141  00000+0  00000+0 0  9990
2 40549  49.6721 298.4826 0041056 197.1617 148.2519  1.00253113 38557
BEIDOU-3S M2S (C58)     
1 40748U 15037A   25281.49242394 -.00000038  00000+0  00000+0 0  9994
2 40748  55.0943 310.7040 0012825 257.6166 102.2921  1.86229055 69434
BEIDOU-3S M1S (C57)     
1 40749U 15037B   25279.58371262 -.00000028  00000+0  00000+0 0  9998
2 40749  55.0925 310.7600 0002567 352.1766   7.8811  1.86253842 69402
BEIDOU-3S IGSO-2S (C56) 
1 40938U 15053A   25282.91136014 -.00000137  00000+0  00000+0 0  9992
2 40938  49.6147 261.7590 0062088 189.4735 350.9277  1.00284344 36848
BEIDOU-2 IGSO-6 (C13)   
1 41434U 16021A   25282.79592729 -.00000162  00000+0  00000+0 0  9993
2 41434  59.8787  40.5396 0057288 228.4918 131.0114  1.00265337 34963
BEIDOU-2 G7 (C03)       
1 41586U 16037A   25283.67257507 -.00000356  00000+0  00000+0 0  9993
2 41586   1.5992  66.9055 0005554 342.9544 322.2369  1.00277381  4384
BEIDOU-3 M1 (C19)       
1 43001U 17069A   25282.91194663 -.00000005  00000+0  00000+0 0  9993
2 43001  56.4723  71.3421 0007137 312.7120  47.2215  1.86230866 53941
BEIDOU-3 M2 (C20)       
1 43002U 17069B   25282.85020780 -.00000004  00000+0  00000+0 0  9994
2 43002  56.4715  71.3802 0005525 351.5826   8.4017  1.86230656 53934
BEIDOU-3 M7 (C27)       
1 43107U 18003A   25282.59420485 -.00000044  00000+0  00000+0 0  9990
2 43107  54.5516 311.0458 0002385  93.1137 266.9608  1.86232356 52681
BEIDOU-3 M8 (C28)       
1 43108U 18003B   25282.53858671 -.00000044  00000+0  00000+0 0  9997
2 43108  54.5445 311.0308 0004941 260.5082  99.4832  1.86230824 52693
BEIDOU-3 M4 (C22)       
1 43207U 18018A   25281.36931904  .00000001  00000+0  00000+0 0  9996
2 43207  56.4299  71.4658 0005090  38.1281 321.9051  1.86230846 52052
BEIDOU-3 M3 (C21)       
1 43208U 18018B   25281.97284138 -.00000002  00000+0  00000+0 0  9996
2 43208  56.4299  71.4498 0005080 335.0560  24.9146  1.86230871 52067
BEIDOU-3 M9 (C29)       
1 43245U 18029A   25281.11520198 -.00000035  00000+0  00000+0 0  9990
2 43245  54.4232 308.7568 0002243 245.1525 114.8751  1.86232416 51200
BEIDOU-3 M10 (C30)      
1 43246U 18029B   25281.05005718 -.00000035  00000+0  00000+0 0  9990
2 43246  54.4208 308.7865 0002903 355.3835   4.6653  1.86229003 51187
BEIDOU-2 IGSO-7 (C16)   
1 43539U 18057A   25280.59239719 -.00000101  00000+0  00000+0 0  9998
2 43539  55.1676 165.2526 0092099 236.0274 300.9635  1.00277050 26596
BEIDOU-3 M5 (C23)       
1 43581U 18062A   25280.20091477  .00000030  00000+0  00000+0 0  9996
2 43581  54.0922 190.9072 0003398 310.1276  49.8853  1.86228524 48924
BEIDOU-3 M6 (C24)       
1 43582U 18062B   25282.21219816  .00000032  00000+0  00000+0 0  9991
2 43582  54.0917 190.8279 0006415  30.4637 329.6269  1.86229640 48967
BEIDOU-3 M12 (C26)      
1 43602U 18067A   25281.07537582  .00000035  00000+0  00000+0 0  9998
2 43602  54.1857 189.5914 0008490  33.6346 326.4703  1.86227548 48426
BEIDOU-3 M11 (C25)      
1 43603U 18067B   25281.20971720  .00000035  00000+0  00000+0 0  9990
2 43603  54.1830 189.5510 0005037  24.5966 335.4793  1.86227067 48459
BEIDOU-3 M13 (C32)      
1 43622U 18072A   25278.48211825  .00000022  00000+0  00000+0 0  9992
2 43622  56.3339  71.0707 0012517 336.8112  23.1446  1.86231649 47911
BEIDOU-3 M14 (C33)      
1 43623U 18072B   25278.88454490  .00000019  00000+0  00000+0 0  9990
2 43623  56.4022  71.0596 0002950  15.4523 344.5667  1.86231022 47914
BEIDOU-3 M16 (C35)      
1 43647U 18078A   25280.11720914 -.00000030  00000+0  00000+0 0  9992
2 43647  54.3204 308.8506 0005939  19.1765 340.9020  1.86232173 47449
BEIDOU-3 M15 (C34)      
1 43648U 18078B   25280.24639541 -.00000031  00000+0  00000+0 0  9993
2 43648  54.3157 308.8472 0002495  21.5249 338.5411  1.86232169 47461
BEIDOU-3 G1 (C59)       
1 43683U 18085A   25283.51832906 -.00000278  00000+0  00000+0 0  9996
2 43683   2.9455 104.4276 0003173  16.0182 225.6302  1.00271961 25551
BEIDOU-3 M17 (C36)      
1 43706U 18093A   25281.22535220  .00000034  00000+0  00000+0 0  9995
2 43706  54.1755 190.8460 0008107 297.9561 252.8540  1.86228101 46849
BEIDOU-3 M18 (C37)      
1 43707U 18093B   25279.19124669  .00000023  00000+0  00000+0 0  9998
2 43707  54.1766 190.9068 0007139 332.6915  27.3070  1.86229821 46800
BEIDOU-3 IGSO-1 (C38)   
1 44204U 19023A   25282.72919365 -.00000223  00000+0  00000+0 0  9996
2 44204  58.3459  40.2392 0025830 217.4496 141.5395  1.00262953  4696
BEIDOU-2 G8 (C01)       
1 44231U 19027A   25283.51928241 -.00000249  00000+0  00000+0 0  9999
2 44231   1.4975  74.4366 0006943 256.3502  20.0996  1.00271193 23574
BEIDOU-3 IGSO-2 (C39)   
1 44337U 19035A   25282.58531927 -.00000102  00000+0  00000+0 0  9990
2 44337  55.2140 161.0674 0037315 203.1426 342.7463  1.00291066 23157
BEIDOU-3 M24 (C46)      
1 44542U 19061A   25279.26270484  .00000023  00000+0  00000+0 0  9997
2 44542  54.4036 191.2933 0009011  10.1370 349.9168  1.86229365 41067
BEIDOU-3 M23 (C45)      
1 44543U 19061B   25281.30105446  .00000034  00000+0  00000+0 0  9993
2 44543  54.4016 191.1929 0005718   0.3063 199.1630  1.86229353 41101
BEIDOU-3 IGSO-3 (C40)   
1 44709U 19073A   25281.41051933 -.00000178  00000+0  00000+0 0  9993
2 44709  55.2353 283.6195 0045333 192.0567 167.8179  1.00263605 21938
BEIDOU-3 M22 (C44)      
1 44793U 19078A   25280.71449258 -.00000034  00000+0  00000+0 0  9995
2 44793  54.1662 308.7030 0004607  25.1254 334.9498  1.86231985 39948
BEIDOU-3 M21 (C43)      
1 44794U 19078B   25282.99847339 -.00000042  00000+0  00000+0 0  9999
2 44794  54.1378 308.5890 0002847   9.3132 350.7340  1.86227603 39997
BEIDOU-3 M19 (C41)      
1 44864U 19090A   25282.43599894 -.00000004  00000+0  00000+0 0  9998
2 44864  56.3378  71.0928 0015654 286.0784 252.0342  1.86231170 39563
BEIDOU-3 M20 (C42)      
1 44865U 19090B   25283.11364149 -.00000006  00000+0  00000+0 0  9990
2 44865  56.3401  71.1044 0013034 300.9367  61.1178  1.86231122 39567
BEIDOU-3 G2 (C60)       
1 45344U 20017A   25283.72052333 -.00000145  00000+0  00000+0 0  9994
2 45344   2.8810  42.5525 0002184 255.4124  61.0348  1.00276556 20750
BEIDOU-3 G3 (C61)       
1 45807U 20040A   25283.01303192 -.00000354  00000+0  00000+0 0  9990
2 45807   1.8326  65.8764 0004024 307.2727 121.0340  1.00270537 19567
BEIDOU-3 G4 (C62)       
1 56564U 23066A   25283.45090207 -.00000116  00000+0  00000+0 0  9997
2 56564   0.9600 297.5129 0005247 223.4659 180.6327  1.00268083  8897
BEIDOU-3 M28 (C50)      
1 58654U 23207A   25282.00319453 -.00000005  00000+0  00000+0 0  9990
2 58654  55.5279  70.7917 0000178 173.7594 186.2361  1.86229673 12167
BEIDOU-3 M26 (C48)      
1 58655U 23207B   25282.87527594 -.00000008  00000+0  00000+0 0  9996
2 58655  55.5308  70.7484 0001700 226.2592 133.7205  1.86231271 12165
BEIDOU-3 M25 (C47)      
1 61186U 24168B   25282.41601876 -.00000043  00000+0  00000+0 0  9991
2 61186  54.6970 310.9494 0005311 281.8594 247.3438  1.86229780  7115
BEIDOU-3 M27 (C49)      
1 61187U 24168C   25283.12762258 -.00000045  00000+0  00000+0 0  9995
2 61187  54.6918 310.9084 0001571 303.9194 117.2884  1.86229857  4605
